[{"OBJECT_NAME":"ONEWEB-0595","OBJECT_ID":"2022-166V","EPOCH":"2026-03-09T22:37:21.327744","MEAN_MOTION":13.2182539,"ECCENTRICITY":0.00018125,"INCLINATION":87.9171,"RA_OF_ASC_NODE":263.7571,"ARG_OF_PERICENTER":90.6849,"MEAN_ANOMALY":269.4492,"EPHEMERIS_TYPE":0,"CLASSIFICATION_TYPE":"U","NORAD_CAT_ID":54661,"ELEMENT_SET_NO":999,"REV_AT_EPOCH":15842,"BSTAR":-0.00050140173,"MEAN_MOTION_DOT":-1.94e-6,"MEAN_MOTION_DDOT":0},{"OBJECT_NAME":"FENGYUN 1C DEB","OBJECT_ID":"1999-025CDU","EPOCH":"2026-03-06T21:54:20.892384","MEAN_MOTION":13.7392794,"ECCENTRICITY":0.03172362,"INCLINATION":99.7931,"RA_OF_ASC_NODE":52.625,"ARG_OF_PERICENTER":326.3209,"MEAN_ANOMALY":59.7967,"EPHEMERIS_TYPE":0,"CLASSIFICATION_TYPE":"U","NORAD_CAT_ID":31721,"ELEMENT_SET_NO":999,"REV_AT_EPOCH":68542,"BSTAR":0.0008669758,"MEAN_MOTION_DOT":1.121e-5,"MEAN_MOTION_DDOT":0}]
